{"version": 0.6, "generator": "Overpass API 0.7.57 93a4d346", "osm3s": {"timestamp_osm_base": "2022-03-27T20:09:39Z", "copyright": "The data included in this document is from www.openstreetmap.org. The data is made available under ODbL."}, "elements": [{"type": "node", "id": 484072995, "lat": 40.6723926, "lon": -73.9578494}, {"type": "node", "id": 484076447, "lat": 40.6754338, "lon": -73.963497, "tags": {"addr:housenumber": "748", "addr:postcode": "11238", "addr:street": "Washington Avenue", "amenity": "pub", "drink:beer": "draught", "drink:liquor": "yes", "drink:wine": "yes", "name": "Washington Commons", "outdoor_seating": "garden"}}, {"type": "node", "id": 720075075, "lat": 40.6722177, "lon": -73.9575705, "tags": {"amenity": "restaurant", "atm": "yes", "cuisine": "burger;american;brunch", "diet:vegan": "limited", "diet:vegetarian": "yes", "drink:beer": "draught", "name": "Dutch Boy Burger", "opening_hours": "Mo-Th 11:00-24:00; Fr 11:00-01:00; Sa 10:00-01:00; Su 10:00-24:00", "phone": "+1-718-230-0293", "pinball": "yes", "sport": "air_hockey", "toilets": "yes", "toilets:unisex": "yes", "toilets:wheelchair": "yes", "website": "https://dutchboyburger.com", "wheelchair": "yes"}}, {"type": "node", "id": 1347055580, "lat": 40.6744702, "lon": -73.9633157, "tags": {"addr:housenumber": "782", "addr:postcode": "11238", "addr:street": "Washington Avenue", "amenity": "restaurant", "atm": "yes", "cuisine": "brunch", "name": "Tom's Restaurant", "opening_hours": "Mo-Sa 07:00-21:00; Su 08:00-21:00", "website": "https://tomsbrooklyn.com/"}}, {"type": "node", "id": 1932725314, "lat": 40.6720806, "lon": -73.9572943, "tags": {"amenity": "restaurant", "cuisine": "pizza", "name": "Barboncino"}}, {"type": "node", "id": 2549915110, "lat": 40.6747649, "lon": -73.9633606, "tags": {"addr:housenumber": "780", "addr:postcode": "11238", "addr:street": "Washington Avenue", "amenity": "restaurant", "bar": "yes", "cocktails": "yes", "cuisine": "new_american", "drink:beer": "draught", "drink:coffee": "yes", "drink:liquor": "yes", "drink:wine": "yes", "name": "Sunshine Co.", "opening_hours": "Mo-Fr 11:00-02:00; Sa 09:00-04:00; Su 09:00-02:00", "phone": "+1 347 750 5275", "website": "https://www.sunshinecobk.com"}}, {"type": "node", "id": 2567062166, "lat": 40.6686344, "lon": -73.9532387, "tags": {"amenity": "restaurant", "cuisine": "steak_house", "name": "Patrick Steakhouse", "opening_hours": "Tu-Th 16:00-22:00; Fr-Sa 16:00-24:00; Su 11:00-15:00,16:00-22:00", "phone": "+1-347-789-9976", "website": "https://patricksteakhouse.com"}}, {"type": "node", "id": 2567093839, "lat": 40.6699277, "lon": -73.9583973, "tags": {"addr:housenumber": "820", "addr:postcode": "11225", "addr:street": "Franklin Avenue", "amenity": "pub", "cocktails": "yes", "cuisine": "american;brunch", "diet:vegan": "limited", "diet:vegetarian": "yes", "drink:beer": "draught", "drink:liquor": "yes", "drink:wine": "yes", "name": "Franklin 820", "opening_hours": "Mo-We 16:00-24:00; Th-Fr 16:00-02:00; Sa 12:00-02:00; Su 12:00-24:00", "phone": "+1-718-708-4113", "website": "https://www.franklin820.com"}}, {"type": "node", "id": 2567116569, "lat": 40.6664592, "lon": -73.9619432}, {"type": "node", "id": 2567116570, "lat": 40.6664526, "lon": -73.9620036}, {"type": "node", "id": 2567972910, "lat": 40.6734983, "lon": -73.953866, "tags": {"addr:housenumber": "1451", "addr:postcode": "11216", "addr:street": "Bedford Avenue", "amenity": "restaurant", "black_owned": "yes", "cuisine": "senegalese", "delivery": "yes", "name": "Cafe Rue Dix", "opening_hours": "Mo-Th 12:00-21:00; Fr-Sa 12:00-22:00; Su 12:00-21:00", "outdoor_seating": "sidewalk;street", "takeaway": "yes", "walkup_window": "yes"}}, {"type": "node", "id": 2568885145, "lat": 40.6721667, "lon": -73.9580086}, {"type": "node", "id": 2568885161, "lat": 40.6721808, "lon": -73.9578072}, {"type": "node", "id": 2568885163, "lat": 40.6721826, "lon": -73.9579254}, {"type": "node", "id": 2568885175, "lat": 40.6721976, "lon": -73.9579974}, {"type": "node", "id": 2568885182, "lat": 40.6722038, "lon": -73.9579177}, {"type": "node", "id": 2568885204, "lat": 40.6722361, "lon": -73.9577872}, {"type": "node", "id": 2568885239, "lat": 40.6722857, "lon": -73.9579655}, {"type": "node", "id": 2568885240, "lat": 40.6722899, "lon": -73.9577677}, {"type": "node", "id": 2568885256, "lat": 40.6723039, "lon": -73.9578351}, {"type": "node", "id": 2568885261, "lat": 40.6723129, "lon": -73.9578782}, {"type": "node", "id": 2568885326, "lat": 40.6723584, "lon": -73.9578618}, {"type": "node", "id": 2568885375, "lat": 40.6724076, "lon": -73.9579214}, {"type": "node", "id": 2568899230, "lat": 40.6734323, "lon": -73.9571327, "tags": {"addr:housenumber": "736", "addr:postcode": "11238", "addr:street": "Franklin Avenue", "amenity": "restaurant", "cocktails": "yes", "cuisine": "mexican", "drink:beer": "yes", "drink:liquor": "yes", "drink:wine": "yes", "name": "Chavela's", "outdoor_seating": "sidewalk"}}, {"type": "node", "id": 2568899238, "lat": 40.6725717, "lon": -73.9576175}, {"type": "node", "id": 2568899245, "lat": 40.6725983, "lon": -73.9577442}, {"type": "node", "id": 2568899258, "lat": 40.6726317, "lon": -73.9575957}, {"type": "node", "id": 2568899262, "lat": 40.6726583, "lon": -73.9577225}, {"type": "node", "id": 2568918242, "lat": 40.6751692, "lon": -73.9601204, "tags": {"addr:housenumber": "732", "addr:postcode": "11238", "addr:street": "Classon Avenue", "alt_name": "Mitierra", "amenity": "restaurant", "cuisine": "mexican", "drink:beer": "yes", "drink:sangria": "yes", "name": "Mi Tierra Restaurant", "opening_hours": "Mo-Su 08:00-21:00", "outdoor_seating": "sidewalk", "phone": "+1-347-442-0352"}}, {"type": "node", "id": 2705030227, "lat": 40.6749105, "lon": -73.9565957, "tags": {"addr:housenumber": "688", "addr:postcode": "11238", "addr:street": "Franklin Avenue", "amenity": "restaurant", "bar": "yes", "cocktails": "yes", "cuisine": "american;brunch", "diet:vegetarian": "yes", "drink:beer": "draught", "drink:liquor": "yes", "drink:wine": "yes", "name": "Mayfield", "opening_hours": "Mo-Th 17:00-22:00; Fr 17:00-23:30; Sa 11:00-15:00,17:00-23:30; Su 11:00-15:00,17:00-22:00", "phone": "+1-347-318-3643", "website": "https://www.mayfieldbk.com"}}, {"type": "node", "id": 2705030236, "lat": 40.6743101, "lon": -73.9564847, "tags": {"addr:housenumber": "709", "addr:postcode": "11216", "addr:street": "Franklin Avenue", "amenity": "restaurant", "cuisine": "thai", "delivery": "yes", "diet:vegan": "yes", "diet:vegetarian": "yes", "drink:beer": "yes", "drink:sake": "yes", "drink:tea": "yes", "drink:wine": "yes", "name": "Sweet Basil", "opening_hours": "Mo 12:00-22:45; We-Sa 12:00-22:45; Su 12:45-22:45", "phone": "+1-718-399-3388", "takeaway": "yes"}}, {"type": "node", "id": 2706023205, "lat": 40.6733786, "lon": -73.9568359, "tags": {"addr:housenumber": "743", "addr:postcode": "11216", "addr:street": "Franklin Avenue", "alt_name": "Island CZ Cafe", "amenity": "restaurant", "bar": "yes", "cocktails": "yes", "cuisine": "caribbean", "disused:website": "https://www.islandczcafe.com", "drink:beer": "draught", "drink:liquor": "yes", "drink:wine": "yes", "name": "Island Seas Cafe", "opening_hours": "Mo-We 11:00-23:00; Th 11:00-24:00; Fr-Sa 11:00-02:00; Su 11:00-23:00", "phone": "+1-718-576-6700"}}, {"type": "node", "id": 2761509772, "lat": 40.6741249, "lon": -73.9536267, "tags": {"addr:city": "Brooklyn", "addr:housenumber": "1433", "addr:postcode": "11216", "addr:state": "NY", "addr:street": "Bedford Avenue", "amenity": "restaurant", "bar": "yes", "cocktails": "yes", "cuisine": "cajun", "delivery": "yes", "drink:beer": "draught", "drink:liquor": "yes", "drink:wine": "yes", "name": "Catfish", "opening_hours": "Mo-Su 11:00-02:00", "outdoor_seating": "yes", "phone": "+1-347-305-3233", "seasonal": "no", "smoking": "no", "takeaway": "yes", "website": "http://www.catfishnyc.com", "wheelchair": "yes"}}, {"type": "node", "id": 3731188827, "lat": 40.6751101, "lon": -73.9634185, "tags": {"amenity": "restaurant", "cuisine": "korean", "delivery": "yes", "drink:beer": "draught", "name": "Kimchi Grill", "opening_hours": "Mo-We 12:00-22:00; Th 12:00-22:30; Fr 12:00-23:00; Sa 11:30-23:00; Su 11:30-22:00", "phone": "+1-718-360-1839", "takeaway": "yes", "website": "https://www.kimchigrill.com/menu"}}, {"type": "node", "id": 3867409162, "lat": 40.675232, "lon": -73.96012, "tags": {"addr:city": "Brooklyn", "addr:housenumber": "730", "addr:street": "Classon Avenue", "amenity": "pub", "name": "Covenhoven", "opening_hours": "Mo-Th 14:00-24:00; Fr 14:00-01:00; Sa 12:00-01:00; Su 12:00-24:00", "phone": "+1-718-483-9950", "website": "https://www.covenhovennyc.com"}}, {"type": "node", "id": 3867497359, "lat": 40.674286, "lon": -73.9527, "tags": {"addr:city": "Brooklyn", "addr:housenumber": "99", "addr:postcode": "11216", "addr:street": "Rogers Avenue", "amenity": "pub", "name": "99 Rogers", "phone": "+49"}}, {"type": "node", "id": 4092436389, "lat": 40.67321, "lon": -73.9572049, "tags": {"amenity": "restaurant", "cuisine": "indian", "delivery": "yes", "drink:beer": "byob", "drink:wine": "byob", "fax": "+1-718-622-9507", "name": "Pearl Indian Restaurant", "opening_hours": "Mo-Th 11:30-15:30,17:00-22:30; Fr 11:30-15:30,17:00-23:30; Sa 12:00-23:00; Su 12:00-22:30", "phone": "+1-718-622-9500", "takeaway": "yes"}}, {"type": "node", "id": 4176535246, "lat": 40.67121, "lon": -73.9579262, "tags": {"addr:housenumber": "798", "addr:postcode": "11238", "addr:street": "Franklin Avenue", "amenity": "restaurant", "cocktails": "yes", "cuisine": "italian", "drink:beer": "draught", "drink:liquor": "yes", "drink:wine": "yes", "name": "Aita Trattoria", "opening_hours": "Mo-Th 17:00-21:30; Fr 17:00-22:00; Sa 10:30-16:00,17:00-22:00; Su 10:30-16:00,17:00-21:00", "outdoor_seating": "street", "phone": "+1-917-966-2670", "website": "https://www.aitatrattoria.com"}}, {"type": "node", "id": 4176542595, "lat": 40.6730876, "lon": -73.9572479, "tags": {"amenity": "restaurant", "bar": "yes", "cocktails": "yes", "cuisine": "italian;brunch", "drink:beer": "draught", "drink:coffee": "yes", "drink:espresso": "yes", "drink:liquor": "yes", "drink:wine": "yes", "happy_hours": "Mo-Fr 16:00-19:00", "name": "Cent'Anni", "opening_hours": "Mo-Th 11:00-23:00; Fr-Sa 11:00-24:00; Su 11:00-23:00", "phone": "+1-718-942-5201", "website": "https://www.centannibrooklyn.com", "wheelchair": "limited"}}, {"type": "node", "id": 4382630245, "lat": 40.67308, "lon": -73.9569495, "tags": {"addr:housenumber": "747", "addr:postcode": "11238", "addr:street": "Franklin Avenue", "amenity": "restaurant", "bar": "yes", "cocktails": "yes", "drink:beer": "yes", "drink:coffee": "yes", "drink:espresso": "yes", "drink:liquor": "yes", "drink:tea": "yes", "drink:wine": "yes", "name": "Hunky Dory", "opening_hours": "Mo,We-Fr 08:00-01:00; Sa-Su 09:00-01:00", "website": "https://www.hunkydorybk.com"}}, {"type": "node", "id": 4680011093, "lat": 40.6728538, "lon": -73.9626391, "tags": {"alt_name": "Colala", "amenity": "restaurant", "cuisine": "asian", "delivery": "yes", "fax": "+1-718-399-7997", "name": "Ke Lai Le", "opening_hours": "Mo-Th 11:30-23:00; Fr-Sa 11:30-23:30; Su 12:00-23:00", "phone": "+1-718-399-7999", "takeaway": "yes", "website": "http://gocolala.com"}}, {"type": "node", "id": 4774165526, "lat": 40.6719172, "lon": -73.9577058, "tags": {"addr:housenumber": "778", "addr:postcode": "11238", "addr:street": "Franklin Avenue", "amenity": "restaurant", "bar": "yes", "black_owned": "yes", "cuisine": "soul_food", "name": "95 South", "opening_hours": "Tu-Fr 12:00-22:00; Sa 14:00-22:00", "phone": "+1-347-750-6180", "website": "https://95southbk.com"}}, {"type": "node", "id": 4774165527, "lat": 40.6695896, "lon": -73.9579451, "tags": {"addr:housenumber": "1032", "addr:postcode": "11225", "addr:street": "Union Street", "amenity": "restaurant", "black_owned": "yes", "cuisine": "caribbean", "diet:vegan": "yes", "diet:vegetarian": "yes", "name": "Ital Kitchen"}}, {"type": "node", "id": 4799342648, "lat": 40.666447, "lon": -73.9620518}, {"type": "node", "id": 4799342649, "lat": 40.6667191, "lon": -73.9621021}, {"type": "node", "id": 4799342665, "lat": 40.6667214, "lon": -73.9620832}, {"type": "node", "id": 4799342666, "lat": 40.6667317, "lon": -73.9619963}, {"type": "node", "id": 5747704988, "lat": 40.6741759, "lon": -73.9632476, "tags": {"amenity": "restaurant", "cuisine": "brunch", "drink:wine": "yes", "name": "Shane's"}}, {"type": "node", "id": 5747704989, "lat": 40.6744249, "lon": -73.963303, "tags": {"amenity": "restaurant", "bar": "yes", "cocktails": "yes", "cuisine": "pizza;brunch", "drink:beer": "draught", "drink:liquor": "yes", "drink:wine": "yes", "happy_hours": "Mo-Fr 16:00-19:00", "name": "Ogliastro", "opening_hours": "Mo-Th 12:00-23:00; Fr 12:00-24:00; Sa 11:00-24:00; Su 11:00-22:00", "outdoor_seating": "garden", "phone": "+1 718 789 3700", "website": "http://ogliastropizza.com"}}, {"type": "node", "id": 5747704994, "lat": 40.6742194, "lon": -73.9632572, "tags": {"amenity": "restaurant", "cuisine": "creole;seafood", "drink:beer": "bottled", "drink:wine": "yes", "name": "Lowerline", "opening_hours": "Tu-Sa 17:00-22:00", "phone": "+1-347-533-7110", "toilets": "yes", "toilets:unisex": "yes", "website": "https://www.lowerlinebk.com"}}, {"type": "node", "id": 6154104344, "lat": 40.6729035, "lon": -73.9626484, "tags": {"amenity": "restaurant", "cocktails": "yes", "cuisine": "french", "drink:beer": "bottled", "drink:coffee": "yes", "drink:espresso": "yes", "drink:tea": "yes", "drink:wine": "yes", "name": "Oxalis", "opening_hours": "Tu-Th 17:30-22:00; Fr-Sa 17:30-23:00; Su 17:30-22:00", "phone": "+1-347-627-8298", "website": "https://oxalisnyc.com"}}, {"type": "node", "id": 6313220809, "lat": 40.6721517, "lon": -73.9579366}, {"type": "node", "id": 6833338806, "lat": 40.6753865, "lon": -73.9564235, "tags": {"amenity": "restaurant", "branch": "Crown Heights", "cuisine": "asian", "diet:vegan": "yes", "drink:beer": "draught", "drink:sake": "yes", "drink:wine": "yes", "name": "Luanne's Wild Ginger", "outdoor_seating": "garden", "phone": "+1-718-928-7668", "website": "http://www.luanneswildgingernyc.com/"}}, {"type": "node", "id": 6833338807, "lat": 40.6753408, "lon": -73.9564409, "tags": {"amenity": "restaurant", "cuisine": "indian", "delivery": "yes", "diet:vegan": "yes", "diet:vegetarian": "yes", "drink:beer": "yes", "drink:wine": "yes", "fax": "+1-718-230-7853", "name": "Diwan Grill", "opening_hours": "Mo-Su 11:30-15:00,17:00-22:30", "phone": "+1-718-230-7852", "takeaway": "yes", "website": "https://www.diwangrillnyc.com"}}, {"type": "node", "id": 6833338809, "lat": 40.6726814, "lon": -73.9574139, "tags": {"amenity": "restaurant", "cocktails": "yes", "cuisine": "asian", "drink:beer": "yes", "drink:liquor": "yes", "drink:wine": "yes", "name": "Misc", "opening_hours": "Mo-Th 12:30-22:00; Fr 12:30-23:00; Sa 13:00-23:00; Su 13:00-22:00", "phone": "+1-347-663-4021", "website": "https://www.miscbklyn.com"}}, {"type": "node", "id": 7161294640, "lat": 40.6698648, "lon": -73.9581019, "tags": {"addr:housenumber": "829", "addr:postcode": "11225", "addr:street": "Franklin Avenue", "amenity": "pub", "cocktails": "yes", "drink:beer": "draught", "drink:liquor": "yes", "drink:wine": "yes", "happy_hours": "Mo 18:00-20:00; Tu-Th 16:00-19:00; Sa-Su 15:00-18:00", "name": "Union Street Pub", "opening_hours": "Mo 18:00-04:00; Tu-Th 16:00-04:00; Fr 14:30-04:00; Sa 15:00-04:00; Su 15:00-04:00", "phone": "+1-347-715-6312", "toilets": "yes", "toilets:access": "customers", "website": "https://www.unionstreetpubbk.com"}}, {"type": "node", "id": 9129531424, "lat": 40.6692616, "lon": -73.9586359, "tags": {"addr:city": "Brooklyn", "addr:housenumber": "842", "addr:postcode": "11225", "addr:state": "NY", "addr:street": "Franklin Avenue", "alt_name": "Joe & Sal's Pizzeria", "amenity": "restaurant", "cuisine": "pizza", "name": "Joe & Sal's Pizza", "opening_hours": "Mo-Th 11:00-22:00 Fr-Sa 10:00-22:00 Su 12:00-22:00", "opening_hours:covid19": "same", "phone": "+1-718-484-8732", "website": "https://www.joeandsalspizza.com"}}, {"type": "node", "id": 9518146176, "lat": 40.6734302, "lon": -73.9568169, "tags": {"amenity": "restaurant", "cocktails": "yes", "cuisine": "ethiopian", "diet:kosher": "yes", "diet:vegan": "yes", "diet:vegetarian": "yes", "drink:beer": "yes", "drink:liquor": "yes", "drink:wine": "yes", "name": "Ras", "opening_hours": "Mo-We 14:00-22:00; Th-Fr 14:00-23:00; Sa 12:00-23:00; Su 12:00-22:00", "outdoor_seating": "street", "phone": "+1-718-622-6220", "website": "https://www.rasplantbased.com"}}, {"type": "node", "id": 9535989740, "lat": 40.6752285, "lon": -73.9567001, "tags": {"addr:housenumber": "605", "addr:postcode": "11238", "addr:street": "Prospect Place", "amenity": "restaurant", "cocktails": "yes", "cuisine": "mexican", "drink:beer": "bottled", "name": "Gueros", "opening_hours": "Mo-We 16:00-22:00; Th-Fr 16:00-23:00; Sa 11:00-23:00; Su 11:00-22:00", "outdoor_seating": "street", "phone": "+1-718-230-4941", "takeaway": "yes", "website": "https://www.guerosbrooklyn.com"}}, {"type": "way", "id": 250451692, "nodes": [2568899238, 2568899245, 2568899262, 2568899258, 2568899238], "tags": {"addr:housenumber": "619", "addr:postcode": "11238", "addr:street": "Saint Johns Place", "amenity": "restaurant", "bar": "yes", "building": "yes", "cocktails": "yes", "cuisine": "american;brunch", "drink:beer": "draught", "drink:liquor": "yes", "drink:wine": "yes", "height": "4.4", "internet_access": "wlan", "internet_access:fee": "no", "name": "Rio Kitchen and Wine", "nycdoitt:bin": "3379004", "opening_hours": "Mo-Th 16:00-23:00; Fr 16:00-24:00; Sa 10:00-24:00; Su 10:00-23:00"}}, {"type": "way", "id": 487485073, "nodes": [4799342649, 4799342665, 4799342666, 2567116569, 2567116570, 4799342648, 4799342649], "tags": {"amenity": "restaurant", "building": "retail", "delivery": "no", "internet_access": "wlan", "internet_access:fee": "no", "name": "Yellow Magnolia Caf\u00e9", "opening_hours": "Tu-Fr 11:00-17:00;Sa-Su 11:00-16:00", "operator": "Patina Restaurant Group", "outdoor_seating": "no", "smoking": "no", "takeaway": "no", "wheelchair": "yes"}}, {"type": "way", "id": 674136717, "nodes": [6313220809, 2568885163, 2568885182, 2568885161, 2568885204, 2568885240, 2568885256, 2568885261, 2568885326, 484072995, 2568885375, 2568885239, 2568885175, 2568885145, 6313220809], "tags": {"addr:housenumber": "618", "addr:postcode": "11238", "addr:street": "Saint Johns Place", "amenity": "pub", "atm": "yes", "cuisine": "burger;american;brunch", "description": "pub with two bars and indoor/outdoor seating, connected to (and serving food from) Dutch Boy Burgers", "diet:vegan": "limited", "diet:vegetarian": "yes", "drink:beer": "draught", "drink:liquor": "yes", "drink:wine": "yes", "fireplace": "yes", "happy_hours": "Mo-Tu 12:00-19:00,24:00-02:00; We-Fr 12:00-19:00; Sa-Su 11:00-16:00", "internet_access": "wlan", "level": "0", "name": "Franklin Park", "opening_hours": "Mo-Th 12:00-02:00; Fr 12:00-04:00; Sa 11:00-04:00; Su 11:00-02:00", "opening_hours:kitchen": "Mo-Th 11:00-24:00; Fr 11:00-01:00; Sa 10:00-01:00; Su 10:00-24:00", "outdoor_seating": "yes", "phone": "+1-718-230-0293", "pinball": "yes", "sport": "air_hockey", "toilets": "yes", "toilets:unisex": "yes", "toilets:wheelchair": "no", "website": "https://franklinparkbrooklyn.com", "wheelchair": "limited"}}]}